      2.10          N: GNSS NAV DATA                        RINEX VERSION / TYPE
fic2rin                                 02/14/2021 00:17:25 PGM / RUN BY / DATE
                                                            END OF HEADER
28 21  2 13 10  0  0.0 6.162016652524e-04-5.343281372916e-12 0.000000000000e+00
    3.000000000000e+01-4.384375000000e+01 4.140886770269e-09 2.394347831112e+00
   -2.212822437286e-06 1.791377784684e-02 8.070841431618e-06 5.153662258148e+03
    5.544000000000e+05 2.216547727585e-07 2.712377030031e+00 5.587935447693e-08
    9.741533585633e-01 2.270312500000e+02-1.350989438750e+00-7.529956510056e-09
   -6.632419124021e-10 1.000000000000e+00 2.144000000000e+03 0.000000000000e+00
    3.400000000000e+00 0.000000000000e+00-1.117587089539e-08 3.000000000000e+01
    5.472000000000e+05 4.000000000000e+00
24 21  2 13 10  0  0.0 2.384651452303e-06-4.547473508865e-13 0.000000000000e+00
    8.600000000000e+01 4.165625000000e+01 5.552016978078e-09-1.786512442386e-01
    2.251937985420e-06 1.090580993332e-02 5.884096026421e-06 5.153609203339e+03
    5.544000000000e+05 2.607703208923e-08 1.503618370803e+00 1.192092895508e-07
    9.349847554223e-01 2.496250000000e+02 7.303952187726e-01-8.751078803272e-09
    3.189418566371e-10 1.000000000000e+00 2.144000000000e+03 0.000000000000e+00
    3.400000000000e+00 0.000000000000e+00 2.793967723846e-09 8.600000000000e+01
    5.472000000000e+05 4.000000000000e+00
32 21  2 13 10  0  0.0 1.857429742813e-05 1.364242052659e-12 0.000000000000e+00
    7.000000000000e+01-2.915625000000e+01 4.289464387695e-09 2.413470990914e+00
   -1.588836312294e-06 4.574973951094e-03 1.207366585732e-05 5.153647579193e+03
    5.544000000000e+05-5.960464477539e-08 5.168090914245e-01-8.381903171539e-08
    9.575545077945e-01 1.460625000000e+02-2.438856742093e+00-7.799253441640e-09
    1.750072897561e-10 1.000000000000e+00 2.144000000000e+03 0.000000000000e+00
    2.400000000000e+00 0.000000000000e+00 4.656612873077e-10 7.000000000000e+01
    5.472000000000e+05 4.000000000000e+00
21 21  2 13 10  0  0.0 9.519839659333e-05 3.183231456205e-12 0.000000000000e+00
    6.200000000000e+01 8.612500000000e+01 4.790913846506e-09 1.878870676860e+00
    4.164874553680e-06 2.427571301814e-02 2.251937985420e-06 5.153721191406e+03
    5.544000000000e+05 4.656612873077e-07-1.642417644830e+00-3.725290298462e-09
    9.558202535216e-01 3.270937500000e+02-1.192374822306e+00-8.159268437710e-09
    2.157232714544e-10 1.000000000000e+00 2.144000000000e+03 0.000000000000e+00
    2.400000000000e+00 0.000000000000e+00-1.024454832077e-08 6.200000000000e+01
    5.472000000000e+05 4.000000000000e+00
20 21  2 13 10  0  0.0 5.247164517641e-04-2.273736754432e-13 0.000000000000e+00
    6.400000000000e+01-9.356250000000e+01 5.346651280915e-09-1.131707164832e+00
   -4.922971129417e-06 5.867255153134e-03 3.412365913391e-06 5.153674718857e+03
    5.544000000000e+05 3.352761268616e-08-6.648776587090e-01-7.823109626770e-08
    9.370487806887e-01 3.005625000000e+02 2.856811028549e+00-8.730363654689e-09
   -1.789360248322e-10 1.000000000000e+00 2.144000000000e+03 0.000000000000e+00
    2.400000000000e+00 0.000000000000e+00-8.381903171539e-09 6.400000000000e+01
    5.472000000000e+05 4.000000000000e+00
17 21  2 13 10  0  0.0 3.934009000659e-04 6.593836587854e-12 0.000000000000e+00
    6.100000000000e+01 7.325000000000e+01 3.660509617776e-09 1.591596587586e+00
    3.745779395103e-06 1.351047749631e-02 1.250766217709e-05 5.153551467896e+03
    5.544000000000e+05 3.352761268616e-08-2.558253709604e+00-3.762543201447e-07
    9.830734854595e-01 1.455937500000e+02-1.578107807027e+00-7.572815438160e-09
    1.428630936784e-10 1.000000000000e+00 2.144000000000e+03 0.000000000000e+00
    2.400000000000e+00 0.000000000000e+00-1.117587089539e-08 6.100000000000e+01
    5.472000000000e+05 4.000000000000e+00
14 21  2 13 10  0  0.0 9.650737047195e-05 2.728484105319e-12 0.000000000000e+00
    1.840000000000e+02-4.221875000000e+01 4.598762985509e-09-9.146028277589e-01
   -2.177432179451e-06 3.551481058821e-04 7.906928658485e-06 5.153735656738e+03
    5.544000000000e+05-3.539025783539e-08 2.664497059866e+00 7.450580596924e-08
    9.584261919208e-01 2.268437500000e+02 2.105022537587e+00-8.041763543159e-09
   -5.353794435599e-10 1.000000000000e+00 2.144000000000e+03 0.000000000000e+00
    2.400000000000e+00 0.000000000000e+00-7.916241884232e-09 1.840000000000e+02
    5.472000000000e+05 4.000000000000e+00
 7 21  2 13 10  0  0.0 5.713244900107e-05 1.352873368887e-11 0.000000000000e+00
    9.700000000000e+01 3.734375000000e+01 5.085926134952e-09-1.144372452712e+00
    1.959502696991e-06 1.442424242850e-02 5.293637514114e-06 5.153595407486e+03
    5.544000000000e+05 3.948807716370e-07 1.580222102548e+00 1.452863216400e-07
    9.515864983801e-01 2.709687500000e+02-2.352934579135e+00-8.376063182367e-09
    2.428672592533e-10 1.000000000000e+00 2.144000000000e+03 0.000000000000e+00
    3.400000000000e+00 0.000000000000e+00-1.117587089539e-08 9.700000000000e+01
    5.472000000000e+05 4.000000000000e+00
23 21  2 13 10  0  0.0 1.183319836855e-04 2.273736754432e-13 0.000000000000e+00
    6.100000000000e+01-1.025937500000e+02 4.694124100539e-09-8.204989033813e-01
   -5.319714546204e-06 1.074165222235e-03 4.764646291733e-06 5.153647184372e+03
    5.544000000000e+05 4.097819328308e-08-5.483350418640e-01-2.421438694000e-08
    9.632860087059e-01 2.891562500000e+02 2.440959869696e+00-8.337490147073e-09
   -2.964409193827e-10 1.000000000000e+00 2.144000000000e+03 0.000000000000e+00
    2.400000000000e+00 0.000000000000e+00-8.381903171539e-09 8.290000000000e+02
    5.472000000000e+05 4.000000000000e+00
18 21  2 13 10  0  0.0 3.470629453659e-04 1.818989403546e-12 0.000000000000e+00
    3.900000000000e+01 7.028125000000e+01 4.646622121891e-09-3.876354526297e-01
    3.684312105179e-06 1.193895121105e-03 2.890825271606e-06 5.153684776306e+03
    5.544000000000e+05-2.980232238770e-08-1.548134714871e+00 2.421438694000e-08
    9.665858969252e-01 3.247187500000e+02 3.032977066092e+00-8.385349283456e-09
    3.753727786401e-10 1.000000000000e+00 2.144000000000e+03 0.000000000000e+00
    2.400000000000e+00 0.000000000000e+00-8.381903171539e-09 5.510000000000e+02
    5.472000000000e+05 4.000000000000e+00
11 21  2 13 10  0  0.0-2.588983625174e-05 1.068656274583e-11 0.000000000000e+00
    4.700000000000e+01 1.182500000000e+02 5.622734209449e-09-1.148573631593e+00
    6.144866347313e-06 1.535034039989e-02 7.331371307373e-06 5.154075254440e+03
    5.544000000000e+05-2.514570951462e-07-2.053239856013e+00-7.450580596924e-09
    9.141161207656e-01 2.205937500000e+02 2.079614223823e+00-8.887870215470e-09
    5.125213485714e-10 1.000000000000e+00 2.144000000000e+03 0.000000000000e+00
    2.400000000000e+00 6.300000000000e+01-1.257285475731e-08 4.700000000000e+01
    5.472000000000e+05 4.000000000000e+00
29 21  2 13  9 59 44.0-2.941098064184e-04-7.048583938740e-12 0.000000000000e+00
    4.300000000000e+01 6.428125000000e+01 3.631222683572e-09 1.777280314562e+00
    3.403052687645e-06 1.507655950263e-03 1.188181340694e-05 5.153688339233e+03
    5.543840000000e+05 4.284083843231e-08-2.546004016270e+00 5.587935447693e-08
    9.848716634008e-01 1.633437500000e+02 2.151559725967e+00-7.537099664740e-09
    1.321483616526e-10 1.000000000000e+00 2.144000000000e+03 0.000000000000e+00
    2.400000000000e+00 0.000000000000e+00-1.024454832077e-08 4.300000000000e+01
    5.484300000000e+05 4.000000000000e+00
 5 21  2 13  9 59 44.0-3.357464447618e-05-1.023181539495e-12 0.000000000000e+00
    0.000000000000e+00-1.033437500000e+02 4.944848829945e-09 2.282610619277e+00
   -5.401670932770e-06 5.982825183310e-03 4.341825842857e-06 5.153818256378e+03
    5.543840000000e+05-3.539025783539e-08-5.579388532842e-01-8.754432201385e-08
    9.553592251293e-01 2.950625000000e+02 8.851701243744e-01-8.375348866898e-09
   -3.300137463972e-10 1.000000000000e+00 2.144000000000e+03 0.000000000000e+00
    2.400000000000e+00 0.000000000000e+00-1.117587089539e-08 0.000000000000e+00
    5.487000000000e+05 4.000000000000e+00
27 21  2 13  9 59 44.0-7.542595267296e-05-7.389644451905e-12 0.000000000000e+00
    5.000000000000e+00 6.975000000000e+01 3.816230389885e-09 1.666464923982e+00
    3.622844815254e-06 9.051910252310e-03 1.190602779388e-05 5.153684461594e+03
    5.543840000000e+05-1.229345798492e-07-2.618273003249e+00 1.080334186554e-07
    9.769877652677e-01 1.587187500000e+02 5.735276161730e-01-7.730321998940e-09
   -1.821504444400e-11 1.000000000000e+00 2.144000000000e+03 0.000000000000e+00
    2.400000000000e+00 0.000000000000e+00 1.862645149231e-09 5.000000000000e+00
    5.497500000000e+05 4.000000000000e+00
 4 21  2 13 10 44 32.0-1.799096353352e-04-2.614797267597e-12 0.000000000000e+00
    1.620000000000e+02-1.853125000000e+01 4.380182452181e-09 1.581723153050e+00
   -8.102506399155e-07 1.120309112594e-03 1.236982643604e-05 5.153598817825e+03
    5.570720000000e+05 3.166496753693e-08 5.571946039518e-01 2.048909664154e-08
    9.606911753179e-01 1.415312500000e+02-3.013375461858e+00-7.898186134012e-09
    2.239378993409e-10 1.000000000000e+00 2.144000000000e+03 0.000000000000e+00
    2.400000000000e+00 0.000000000000e+00-4.190951585770e-09 6.740000000000e+02
    5.499000000000e+05 4.000000000000e+00
16 21  2 13  9 59 44.0-2.794507890940e-04-5.684341886081e-12 0.000000000000e+00
    2.000000000000e+00-4.525000000000e+01 4.155887395106e-09 2.580201404339e+00
   -2.460554242134e-06 1.218679465819e-02 8.415430784225e-06 5.153648386002e+03
    5.543840000000e+05-8.195638656616e-08 2.708788974745e+00-1.359730958939e-07
    9.750789322028e-01 2.263437500000e+02 6.510019977606e-01-7.748179885650e-09
   -5.614519581562e-10 1.000000000000e+00 2.144000000000e+03 0.000000000000e+00
    2.400000000000e+00 0.000000000000e+00-1.024454832077e-08 2.000000000000e+00
    5.532000000000e+05 4.000000000000e+00
